{
  "type": "FeatureCollection",
  "features": [
    {
      "type": "Feature",
      "properties": {
        "norad_id": 57400,
        "name": "TIANMU-1 08",
        "group": "weather",
        "lat": 32.96400416238496,
        "lon": 25.5054866513096,
        "alt_km": 478.13375047731734,
        "timestamp": "2025-12-06T11:28:10.672523+00:00",
        "meta_object_name": "TIANMU-1 08",
        "meta_object_id": "2023-101B",
        "meta_epoch": "2025-12-05T22:45:00.906624",
        "meta_mean_motion": 15.27907775,
        "meta_eccentricity": 0.00075363,
        "meta_inclination": 97.2873,
        "meta_ra_of_asc_node": 29.7477,
        "meta_arg_of_pericenter": 102.7298,
        "meta_mean_anomaly": 257.4785,
        "meta_ephemeris_type": 0,
        "meta_classification_type": "U",
        "meta_norad_cat_id": 57400,
        "meta_element_set_no": 999,
        "meta_rev_at_epoch": 13211,
        "meta_bstar": 0.00041880877,
        "meta_mean_motion_dot": 0.0001135,
        "meta_mean_motion_ddot": 0,
        "tle_line1": "1 57400U 23101B   25339.94792716  .00011350  00000+0  41881-3 0  9994",
        "tle_line2": "2 57400  97.2873  29.7477 0007536 102.7298 257.4785 15.27907775132116"
      },
      "geometry": {
        "type": "Point",
        "coordinates": [
          25.5054866513096,
          32.96400416238496
        ]
      }
    },
    {
      "type": "Feature",
      "properties": {
        "norad_id": 57401,
        "name": "TIANMU-1 09",
        "group": "weather",
        "lat": 72.89493314234764,
        "lon": -125.66156392009003,
        "alt_km": 470.3302034540102,
        "timestamp": "2025-12-06T11:28:10.672533+00:00",
        "meta_object_name": "TIANMU-1 09",
        "meta_object_id": "2023-101C",
        "meta_epoch": "2025-12-05T22:26:09.299904",
        "meta_mean_motion": 15.27932418,
        "meta_eccentricity": 0.00068087,
        "meta_inclination": 97.2829,
        "meta_ra_of_asc_node": 29.2519,
        "meta_arg_of_pericenter": 102.2305,
        "meta_mean_anomaly": 257.9697,
        "meta_ephemeris_type": 0,
        "meta_classification_type": "U",
        "meta_norad_cat_id": 57401,
        "meta_element_set_no": 999,
        "meta_rev_at_epoch": 13211,
        "meta_bstar": 0.00042201003,
        "meta_mean_motion_dot": 0.00011445,
        "meta_mean_motion_ddot": 0,
        "tle_line1": "1 57401U 23101C   25339.93482986  .00011445  00000+0  42201-3 0  9991",
        "tle_line2": "2 57401  97.2829  29.2519 0006808 102.2305 257.9697 15.27932418132114"
      },
      "geometry": {
        "type": "Point",
        "coordinates": [
          -125.66156392009003,
          72.89493314234764
        ]
      }
    },
    {
      "type": "Feature",
      "properties": {
        "norad_id": 57402,
        "name": "TIANMU-1 10",
        "group": "weather",
        "lat": -79.4848288916867,
        "lon": 74.23831773644524,
        "alt_km": 495.1944578694547,
        "timestamp": "2025-12-06T11:28:10.672543+00:00",
        "meta_object_name": "TIANMU-1 10",
        "meta_object_id": "2023-101D",
        "meta_epoch": "2025-12-05T23:15:22.268736",
        "meta_mean_motion": 15.27922752,
        "meta_eccentricity": 0.00085312,
        "meta_inclination": 97.2909,
        "meta_ra_of_asc_node": 30.1281,
        "meta_arg_of_pericenter": 103.0252,
        "meta_mean_anomaly": 257.1941,
        "meta_ephemeris_type": 0,
        "meta_classification_type": "U",
        "meta_norad_cat_id": 57402,
        "meta_element_set_no": 999,
        "meta_rev_at_epoch": 13211,
        "meta_bstar": 0.00043592114,
        "meta_mean_motion_dot": 0.00011826,
        "meta_mean_motion_ddot": 0,
        "tle_line1": "1 57402U 23101D   25339.96900774  .00011826  00000+0  43592-3 0  9992",
        "tle_line2": "2 57402  97.2909  30.1281 0008531 103.0252 257.1941 15.27922752132110"
      },
      "geometry": {
        "type": "Point",
        "coordinates": [
          74.23831773644524,
          -79.4848288916867
        ]
      }
    },
    {
      "type": "Feature",
      "properties": {
        "norad_id": 57490,
        "name": "FENGYUN 3F",
        "group": "weather",
        "lat": 81.2826291901502,
        "lon": -42.5129307142266,
        "alt_km": 817.780802207446,
        "timestamp": "2025-12-06T11:28:10.672555+00:00",
        "meta_object_name": "FENGYUN 3F",
        "meta_object_id": "2023-111A",
        "meta_epoch": "2025-12-05T21:30:59.912064",
        "meta_mean_motion": 14.19890753,
        "meta_eccentricity": 6.642e-05,
        "meta_inclination": 98.7094,
        "meta_ra_of_asc_node": 48.3002,
        "meta_arg_of_pericenter": 89.2392,
        "meta_mean_anomaly": 270.886,
        "meta_ephemeris_type": 0,
        "meta_classification_type": "U",
        "meta_norad_cat_id": 57490,
        "meta_element_set_no": 999,
        "meta_rev_at_epoch": 12143,
        "meta_bstar": 0.00011070029,
        "meta_mean_motion_dot": 1.91e-06,
        "meta_mean_motion_ddot": 0,
        "tle_line1": "1 57490U 23111A   25339.89652676  .00000191  00000+0  11070-3 0  9996",
        "tle_line2": "2 57490  98.7094  48.3002 0000664  89.2392 270.8860 14.19890753121439"
      },
      "geometry": {
        "type": "Point",
        "coordinates": [
          -42.5129307142266,
          81.2826291901502
        ]
      }
    },
    {
      "type": "Feature",
      "properties": {
        "norad_id": 58584,
        "name": "ARKTIKA-M 2",
        "group": "weather",
        "lat": 56.77836459170509,
        "lon": -133.94965373410346,
        "alt_km": 33845.70355839172,
        "timestamp": "2025-12-06T11:28:10.672568+00:00",
        "meta_object_name": "ARKTIKA-M 2",
        "meta_object_id": "2023-198A",
        "meta_epoch": "2025-12-03T08:34:19.284960",
        "meta_mean_motion": 2.00605176,
        "meta_eccentricity": 0.68642509,
        "meta_inclination": 63.2223,
        "meta_ra_of_asc_node": 175.9121,
        "meta_arg_of_pericenter": 268.1397,
        "meta_mean_anomaly": 18.842,
        "meta_ephemeris_type": 0,
        "meta_classification_type": "U",
        "meta_norad_cat_id": 58584,
        "meta_element_set_no": 999,
        "meta_rev_at_epoch": 1439,
        "meta_bstar": 0,
        "meta_mean_motion_dot": 2.24e-06,
        "meta_mean_motion_ddot": 0,
        "tle_line1": "1 58584U 23198A   25337.35716765  .00000224  00000+0  00000+0 0  9999",
        "tle_line2": "2 58584  63.2223 175.9121 6864250 268.1397  18.8420  2.00605176 14390"
      },
      "geometry": {
        "type": "Point",
        "coordinates": [
          -133.94965373410346,
          56.77836459170509
        ]
      }
    },
    {
      "type": "Feature",
      "properties": {
        "norad_id": 58645,
        "name": "TIANMU-1 11",
        "group": "weather",
        "lat": 5.224256289201082,
        "lon": -179.11100204380165,
        "alt_km": 500.27926763846335,
        "timestamp": "2025-12-06T11:28:10.672581+00:00",
        "meta_object_name": "TIANMU-1 11",
        "meta_object_id": "2023-205A",
        "meta_epoch": "2025-12-05T23:40:42.823200",
        "meta_mean_motion": 15.2447544,
        "meta_eccentricity": 0.00085556,
        "meta_inclination": 97.3603,
        "meta_ra_of_asc_node": 359.7292,
        "meta_arg_of_pericenter": 337.2975,
        "meta_mean_anomaly": 22.7883,
        "meta_ephemeris_type": 0,
        "meta_classification_type": "U",
        "meta_norad_cat_id": 58645,
        "meta_element_set_no": 999,
        "meta_rev_at_epoch": 10806,
        "meta_bstar": 0.00039573533,
        "meta_mean_motion_dot": 9.664e-05,
        "meta_mean_motion_ddot": 0,
        "tle_line1": "1 58645U 23205A   25339.98660675  .00009664  00000+0  39574-3 0  9994",
        "tle_line2": "2 58645  97.3603 359.7292 0008555 337.2975  22.7883 15.24475440108065"
      },
      "geometry": {
        "type": "Point",
        "coordinates": [
          -179.11100204380165,
          5.224256289201082
        ]
      }
    },
    {
      "type": "Feature",
      "properties": {
        "norad_id": 58646,
        "name": "TIANMU-1 12",
        "group": "weather",
        "lat": 29.044383928916886,
        "lon": -4.096277647141789,
        "alt_km": 489.72769053322645,
        "timestamp": "2025-12-06T11:28:10.672591+00:00",
        "meta_object_name": "TIANMU-1 12",
        "meta_object_id": "2023-205B",
        "meta_epoch": "2025-12-05T22:44:17.909664",
        "meta_mean_motion": 15.24388825,
        "meta_eccentricity": 0.00063977,
        "meta_inclination": 97.3591,
        "meta_ra_of_asc_node": 359.4985,
        "meta_arg_of_pericenter": 322.207,
        "meta_mean_anomaly": 37.8718,
        "meta_ephemeris_type": 0,
        "meta_classification_type": "U",
        "meta_norad_cat_id": 58646,
        "meta_element_set_no": 999,
        "meta_rev_at_epoch": 10804,
        "meta_bstar": 0.00042698785,
        "meta_mean_motion_dot": 0.00010403,
        "meta_mean_motion_ddot": 0,
        "tle_line1": "1 58646U 23205B   25339.94742951  .00010403  00000+0  42699-3 0  9994",
        "tle_line2": "2 58646  97.3591 359.4985 0006397 322.2070  37.8718 15.24388825108042"
      },
      "geometry": {
        "type": "Point",
        "coordinates": [
          -4.096277647141789,
          29.044383928916886
        ]
      }
    }
  ]
}